[
    {
        "Altitude(m)": 554256.0697999283,
        "Argument of Periapsis(deg)": 0.0,
        "Eccentricity": 0.0,
        "Inclination(deg)": 53.0,
        "Latitude(deg)": -0.07927914409681529,
        "Longitude(deg)": 155.09017750965862,
        "Mean Anomaly(deg)": 180.0,
        "RAAN(deg)": 75.0,
        "Satellite Name": "Starlink Shell 1 341",
        "Satellite Number": 341,
        "Semi-Major Axis(m)": 6931778.249405717,
        "Time(s)": 0
    },
    {
        "Altitude(m)": 554323.2806574919,
        "Argument of Periapsis(deg)": 0.00034857847951123687,
        "Eccentricity": 0.0,
        "Inclination(deg)": 53.0,
        "Latitude(deg)": -0.5832073329387238,
        "Longitude(deg)": 155.4255540269446,
        "Mean Anomaly(deg)": 180.62683120355672,
        "RAAN(deg)": 74.99948122992252,
        "Satellite Name": "Starlink Shell 1 341",
        "Satellite Number": 341,
        "Semi-Major Axis(m)": 6931778.249405717,
        "Time(s)": 10
    },
    {
        "Altitude(m)": 554393.2775345735,
        "Argument of Periapsis(deg)": 0.0006971569590224737,
        "Eccentricity": 0.0,
        "Inclination(deg)": 53.0,
        "Latitude(deg)": -1.0870994629776842,
        "Longitude(deg)": 155.76099018918865,
        "Mean Anomaly(deg)": 181.2536624071134,
        "RAAN(deg)": 74.99896245984506,
        "Satellite Name": "Starlink Shell 1 341",
        "Satellite Number": 341,
        "Semi-Major Axis(m)": 6931778.249405717,
        "Time(s)": 20
    },
    {
        "Altitude(m)": 554466.050195641,
        "Argument of Periapsis(deg)": 0.0010457354385337105,
        "Eccentricity": 0.0,
        "Inclination(deg)": 53.0,
        "Latitude(deg)": -1.5909326321512356,
        "Longitude(deg)": 156.09654354491795,
        "Mean Anomaly(deg)": 181.88049361067016,
        "RAAN(deg)": 74.99844368976758,
        "Satellite Name": "Starlink Shell 1 341",
        "Satellite Number": 341,
        "Semi-Major Axis(m)": 6931778.249405717,
        "Time(s)": 30
    },
    {
        "Altitude(m)": 554541.5870544178,
        "Argument of Periapsis(deg)": 0.0013943139180449475,
        "Eccentricity": 0.0,
        "Inclination(deg)": 53.0,
        "Latitude(deg)": -2.0946839169815332,
        "Longitude(deg)": 156.4322721956897,
        "Mean Anomaly(deg)": 182.50732481422682,
        "RAAN(deg)": 74.9979249196901,
        "Satellite Name": "Starlink Shell 1 341",
        "Satellite Number": 341,
        "Semi-Major Axis(m)": 6931778.249405717,
        "Time(s)": 40
    },
    {
        "Altitude(m)": 554619.8751769128,
        "Argument of Periapsis(deg)": 0.0017428923975561844,
        "Eccentricity": 0.0,
        "Inclination(deg)": 53.0,
        "Latitude(deg)": -2.5983303608635335,
        "Longitude(deg)": 156.76823381274568,
        "Mean Anomaly(deg)": 183.1341560177836,
        "RAAN(deg)": 74.99740614961264,
        "Satellite Name": "Starlink Shell 1 341",
        "Satellite Number": 341,
        "Semi-Major Axis(m)": 6931778.249405717,
        "Time(s)": 50
    },
    {
        "Altitude(m)": 554700.9002851242,
        "Argument of Periapsis(deg)": 0.002091470877067421,
        "Eccentricity": 0.0,
        "Inclination(deg)": 53.0,
        "Latitude(deg)": -3.101848962322664,
        "Longitude(deg)": 157.1044861665586,
        "Mean Anomaly(deg)": 183.76098722134032,
        "RAAN(deg)": 74.99688737953517,
        "Satellite Name": "Starlink Shell 1 341",
        "Satellite Number": 341,
        "Semi-Major Axis(m)": 6931778.249405717,
        "Time(s)": 60
    },
    {
        "Altitude(m)": 554784.646761406,
        "Argument of Periapsis(deg)": 0.0024400493565786582,
        "Eccentricity": 0.0,
        "Inclination(deg)": 53.0,
        "Latitude(deg)": -3.605216663227742,
        "Longitude(deg)": 157.44108765640473,
        "Mean Anomaly(deg)": 184.387818424897,
        "RAAN(deg)": 74.99636860945769,
        "Satellite Name": "Starlink Shell 1 341",
        "Satellite Number": 341,
        "Semi-Major Axis(m)": 6931778.249405717,
        "Time(s)": 70
    },
    {
        "Altitude(m)": 554871.0976535265,
        "Argument of Periapsis(deg)": 0.002788627836089895,
        "Eccentricity": 0.0,
        "Inclination(deg)": 53.0,
        "Latitude(deg)": -4.108410336946008,
        "Longitude(deg)": 157.77809632709673,
        "Mean Anomaly(deg)": 185.0146496284537,
        "RAAN(deg)": 74.99584983938023,
        "Satellite Name": "Starlink Shell 1 341",
        "Satellite Number": 341,
        "Semi-Major Axis(m)": 6931778.249405717,
        "Time(s)": 80
    },
    {
        "Altitude(m)": 554960.234680374,
        "Argument of Periapsis(deg)": 0.0031372063156011316,
        "Eccentricity": 0.0,
        "Inclination(deg)": 53.0,
        "Latitude(deg)": -4.611406776433314,
        "Longitude(deg)": 158.11557039862913,
        "Mean Anomaly(deg)": 185.64148083201044,
        "RAAN(deg)": 74.99533106930275,
        "Satellite Name": "Starlink Shell 1 341",
        "Satellite Number": 341,
        "Semi-Major Axis(m)": 6931778.249405717,
        "Time(s)": 90
    },
    {
        "Altitude(m)": 555052.0382383355,
        "Argument of Periapsis(deg)": 0.0034857847951123688,
        "Eccentricity": 0.0,
        "Inclination(deg)": 53.0,
        "Latitude(deg)": -5.114182682246053,
        "Longitude(deg)": 158.4535687958715,
        "Mean Anomaly(deg)": 186.26831203556716,
        "RAAN(deg)": 74.99481229922527,
        "Satellite Name": "Starlink Shell 1 341",
        "Satellite Number": 341,
        "Semi-Major Axis(m)": 6931778.249405717,
        "Time(s)": 100
    },
    {
        "Altitude(m)": 555146.4874083371,
        "Argument of Periapsis(deg)": 0.003834363274623606,
        "Eccentricity": 0.0,
        "Inclination(deg)": 53.0,
        "Latitude(deg)": -5.616714650460605,
        "Longitude(deg)": 158.7921501654407,
        "Mean Anomaly(deg)": 186.89514323912388,
        "RAAN(deg)": 74.99429352914781,
        "Satellite Name": "Starlink Shell 1 341",
        "Satellite Number": 341,
        "Semi-Major Axis(m)": 6931778.249405717,
        "Time(s)": 110
    },
    {
        "Altitude(m)": 555243.5599635477,
        "Argument of Periapsis(deg)": 0.004182941754134842,
        "Eccentricity": 0.0,
        "Inclination(deg)": 53.0,
        "Latitude(deg)": -6.118979160494693,
        "Longitude(deg)": 159.13137340550605,
        "Mean Anomaly(deg)": 187.52197444268054,
        "RAAN(deg)": 74.99377475907033,
        "Satellite Name": "Starlink Shell 1 341",
        "Satellite Number": 341,
        "Semi-Major Axis(m)": 6931778.249405717,
        "Time(s)": 120
    },
    {
        "Altitude(m)": 555343.232377733,
        "Argument of Periapsis(deg)": 0.004531520233646079,
        "Eccentricity": 0.0,
        "Inclination(deg)": 53.0,
        "Latitude(deg)": -6.6209525628153205,
        "Longitude(deg)": 159.47129819565833,
        "Mean Anomaly(deg)": 188.1488056462373,
        "RAAN(deg)": 74.99325598899286,
        "Satellite Name": "Starlink Shell 1 341",
        "Satellite Number": 341,
        "Semi-Major Axis(m)": 6931778.249405717,
        "Time(s)": 130
    },
    {
        "Altitude(m)": 555445.4798342381,
        "Argument of Periapsis(deg)": 0.0048800987131573164,
        "Eccentricity": 0.0,
        "Inclination(deg)": 53.0,
        "Latitude(deg)": -7.1226110665204105,
        "Longitude(deg)": 159.81198401397506,
        "Mean Anomaly(deg)": 188.77563684979404,
        "RAAN(deg)": 74.9927372189154,
        "Satellite Name": "Starlink Shell 1 341",
        "Satellite Number": 341,
        "Semi-Major Axis(m)": 6931778.249405717,
        "Time(s)": 140
    },
    {
        "Altitude(m)": 555550.2762356654,
        "Argument of Periapsis(deg)": 0.005228677192668553,
        "Eccentricity": 0.0,
        "Inclination(deg)": 53.0,
        "Latitude(deg)": -7.623930726786924,
        "Longitude(deg)": 160.15349066703254,
        "Mean Anomaly(deg)": 189.40246805335073,
        "RAAN(deg)": 74.9922184488379,
        "Satellite Name": "Starlink Shell 1 341",
        "Satellite Number": 341,
        "Semi-Major Axis(m)": 6931778.249405717,
        "Time(s)": 150
    },
    {
        "Altitude(m)": 555657.5942141234,
        "Argument of Periapsis(deg)": 0.00557725567217979,
        "Eccentricity": 0.0,
        "Inclination(deg)": 53.0,
        "Latitude(deg)": -8.124887432171784,
        "Longitude(deg)": 160.49587881999528,
        "Mean Anomaly(deg)": 190.02929925690748,
        "RAAN(deg)": 74.99169967876044,
        "Satellite Name": "Starlink Shell 1 341",
        "Satellite Number": 341,
        "Semi-Major Axis(m)": 6931778.249405717,
        "Time(s)": 160
    },
    {
        "Altitude(m)": 555767.4051421852,
        "Argument of Periapsis(deg)": 0.0059258341516910265,
        "Eccentricity": 0.0,
        "Inclination(deg)": 53.0,
        "Latitude(deg)": -8.625456891750828,
        "Longitude(deg)": 160.83920901391235,
        "Mean Anomaly(deg)": 190.65613046046414,
        "RAAN(deg)": 74.99118090868296,
        "Satellite Name": "Starlink Shell 1 341",
        "Satellite Number": 341,
        "Semi-Major Axis(m)": 6931778.249405717,
        "Time(s)": 170
    },
    {
        "Altitude(m)": 555879.6791444011,
        "Argument of Periapsis(deg)": 0.006274412631202263,
        "Eccentricity": 0.0,
        "Inclination(deg)": 53.0,
        "Latitude(deg)": -9.125614622089516,
        "Longitude(deg)": 161.1835421959692,
        "Mean Anomaly(deg)": 191.28296166402086,
        "RAAN(deg)": 74.99066213860549,
        "Satellite Name": "Starlink Shell 1 341",
        "Satellite Number": 341,
        "Semi-Major Axis(m)": 6931778.249405717,
        "Time(s)": 180
    }
]